[{"OBJECT_NAME":"STARLINK-35947","OBJECT_ID":"2025-283F","EPOCH":"2026-03-09T06:06:26.284896","MEAN_MOTION":15.30193502,"ECCENTRICITY":0.00011036,"INCLINATION":53.1613,"RA_OF_ASC_NODE":26.4648,"ARG_OF_PERICENTER":113.3046,"MEAN_ANOMALY":246.8071,"EPHEMERIS_TYPE":0,"CLASSIFICATION_TYPE":"U","NORAD_CAT_ID":66883,"ELEMENT_SET_NO":999,"REV_AT_EPOCH":1579,"BSTAR":0.00083943165,"MEAN_MOTION_DOT":0.0002458,"MEAN_MOTION_DDOT":0},{"OBJECT_NAME":"KUIPER-00175","OBJECT_ID":"2025-301C","EPOCH":"2026-03-09T23:30:37.840032","MEAN_MOTION":15.30996371,"ECCENTRICITY":0.00022792,"INCLINATION":51.8781,"RA_OF_ASC_NODE":63.6978,"ARG_OF_PERICENTER":50.5695,"MEAN_ANOMALY":309.549,"EPHEMERIS_TYPE":0,"CLASSIFICATION_TYPE":"U","NORAD_CAT_ID":67135,"ELEMENT_SET_NO":999,"REV_AT_EPOCH":1385,"BSTAR":0.00066732304,"MEAN_MOTION_DOT":0.00019968,"MEAN_MOTION_DDOT":0}]
